1 33105U 08032A   10353.45304130 -.00000050  00000+0  46041-4 0  8282
2 33105  66.0434   7.9582 0007841 267.7308  92.2806 12.80930072116828
1 33105U 08032A   10353.76534514 -.00000050  00000+0  46041-4 0  8298
2 33105  66.0433   7.3095 0007822 267.6399  92.3725 12.80930102116867
1 33105U 08032A   10354.85840796 -.00000050  00000+0  46041-4 0  8291
2 33105  66.0429   5.0391 0007855 267.9691  92.0428 12.80930224117009
1 33105U 08032A   10355.79531938 -.00000050  00000+0  46041-4 0  8324
2 33105  66.0425   3.0927 0007842 268.2215  91.7908 12.80930205117121
1 33105U 08032A   10356.10762296 -.00000050  00000+0  46041-4 0  8301
2 33105  66.0426   2.4440 0007817 268.3551  91.6566 12.80930256117160
1 33105U 08032A   10356.73223047 -.00000050  00000+0  46041-4 0  8328
2 33105  66.0422   1.1461 0007825 268.5318  91.4806 12.80930279117246
1 33105U 08032A   10357.12260998 -.00000050  00000+0  46041-4 0  8317
2 33105  66.0424   0.3351 0007826 268.5115  91.5008 12.80930336117297
1 33105U 08032A   10357.74721724 -.00000050  00000+0  46041-4 0  8336
2 33105  66.0422 359.0376 0007812 268.5171  91.4952 12.80930374117371
1 33105U 08032A   10358.44990058 -.00000050  00000+0  46041-4 0  8332
2 33105  66.0425 357.5780 0007792 268.6892  91.3227 12.80930360117463
1 33105U 08032A   10358.76220436 -.00000050  00000+0  46041-4 0  8355
2 33105  66.0425 356.9294 0007785 268.7880  91.2244 12.80930404117508
1 33105U 08032A   10359.54296368 -.00000050  00000+0  46041-4 0  8359
2 33105  66.0425 355.3071 0007785 268.7404  91.2718 12.80930358117601
1 33105U 08032A   10359.85526739 -.00000050  00000+0  46041-4 0  8362
2 33105  66.0425 354.6585 0007789 268.6282  91.3844 12.80930397117648
1 33105U 08032A   10360.79217849 -.00000050  00000+0  46041-4 0  8366
2 33105  66.0430 352.7126 0007791 268.5678  91.4447 12.80930422117767
1 33105U 08032A   10361.80716576 -.00000050  00000+0  46041-4 0  8371
2 33105  66.0433 350.6048 0007800 268.6121  91.4003 12.80930345117891
1 33105U 08032A   10362.90022892 -.00000050  00000+0  46041-4 0  8385
2 33105  66.0437 348.3345 0007809 268.6520  91.3604 12.80930324118031
1 33105U 08032A   10363.52483652 -.00000050  00000+0  46041-4 0  8402
2 33105  66.0439 347.0370 0007803 268.7194  91.2934 12.80930328118117
1 33105U 08032A   10363.99329194 -.00000050  00000+0  46041-4 0  8391
2 33105  66.0437 346.0642 0007819 268.7078  91.3042 12.80930309118170
1 33105U 08032A   10364.77405129 -.00000050  00000+0  46041-4 0  8414
2 33105  66.0438 344.4426 0007814 268.8032  91.2095 12.80930391118278
1 33105U 08032A   10365.16443074 -.00000050  00000+0  46041-4 0  8408
2 33105  66.0439 343.6318 0007810 269.0233  90.9869 12.80930274118323
1 33105U 08032A   10365.86711441 -.00000050  00000+0  46041-4 0  8423
2 33105  66.0439 342.1724 0007817 269.0905  90.9220 12.80930389118419
1 33105U 08032A   11001.17941797 -.00000050  00000+0  46041-4 0  8413
2 33105  66.0439 341.5236 0007814 269.2595  90.7508 12.80930282118457
1 33105U 08032A   11001.80402548 -.00000050  00000+0  46041-4 0  8431
2 33105  66.0437 340.2261 0007806 269.3359  90.6762 12.80930417118539
1 33105U 08032A   11002.58478480 -.00000050  00000+0  46041-4 0  8424
2 33105  66.0437 338.6044 0007804 269.2151  90.7978 12.80930449118632
1 33105U 08032A   11002.89708829 -.00000050  00000+0  46041-4 0  8432
2 33105  66.0437 337.9558 0007813 269.2520  90.7601 12.80930460118674
1 33105U 08032A   11003.59977180 -.00000050  00000+0  46041-4 0  8438
2 33105  66.0435 336.4960 0007786 269.0769  90.9361 12.80930445118763
1 33105U 08032A   11004.53668285 -.00000050  00000+0  46041-4 0  8458
2 33105  66.0436 334.5494 0007769 268.8863  91.1271 12.80930473118885
1 33105U 08032A   11004.92706223 -.00000050  00000+0  46041-4 0  8445
2 33105  66.0438 333.7386 0007766 269.0377  90.9747 12.80930502118932
1 33105U 08032A   11005.86397318 -.00000050  00000+0  46041-4 0  8462
2 33105  66.0440 331.7926 0007774 268.7852  91.2281 12.80930603119059
1 33105U 08032A   11006.25435255 -.00000050  00000+0  46041-4 0  8458
2 33105  66.0442 330.9817 0007759 269.1469  90.8635 12.80930491119102
1 33105U 08032A   11006.56665670 -.00000050  00000+0  46041-4 0  8469
2 33105  66.0440 330.3330 0007753 269.2434  90.7693 12.80930507119146
1 33105U 08032A   11007.58164398 -.00000050  00000+0  46041-4 0  8463
2 33105  66.0441 328.2247 0007749 269.5310  90.4818 12.80930445119272
1 33105U 08032A   11008.83085882 -.00000050  00000+0  46041-4 0  8473
2 33105  66.0441 325.6302 0007700 269.6345  90.3789 12.80930490119435
1 33105U 08032A   11009.84584608 -.00000050  00000+0  46041-4 0  8509
2 33105  66.0442 323.5225 0007697 269.8010  90.2128 12.80930479119560
1 33105U 08032A   11010.15814964 -.00000050  00000+0  46041-4 0  8483
2 33105  66.0444 322.8740 0007689 269.7629  90.2492 12.80930409119604
1 33105U 08032A   11010.86083333 -.00000050  00000+0  46041-4 0  8502
2 33105  66.0443 321.4148 0007693 269.6581  90.3553 12.80930377119693
1 33105U 08032A   11011.17313702 -.00000050  00000+0  46041-4 0  8491
2 33105  66.0445 320.7661 0007674 269.7567  90.2564 12.80930399119731
1 33105U 08032A   11011.48544082 -.00000050  00000+0  46041-4 0  8504
2 33105  66.0444 320.1173 0007662 270.0122  90.0014 12.80930415119772
1 33105U 08032A   11012.42235182 -.00000050  00000+0  46041-4 0  8507
2 33105  66.0444 318.1715 0007648 269.9556  90.0585 12.80930483119894
1 33105U 08032A   11012.81273136 -.00000050  00000+0  46041-4 0  8512
2 33105  66.0443 317.3609 0007649 269.8044  90.2100 12.80930521119942
1 33105U 08032A   11013.43733877 -.00000050  00000+0  46041-4 0  8514
2 33105  66.0444 316.0637 0007626 269.8382  90.1761 12.80930518120029
1 33105U 08032A   11013.74964239 -.00000050  00000+0  46041-4 0  8527
2 33105  66.0443 315.4153 0007632 269.7556  90.2590 12.80930553120067
1 33105U 08032A   11014.53040173 -.00000050  00000+0  46041-4 0  8527
2 33105  66.0443 313.7936 0007626 269.7691  90.2455 12.80930524120169
1 33105U 08032A   11014.84270529 -.00000050  00000+0  46041-4 0  8532
2 33105  66.0444 313.1450 0007655 269.7512  90.2633 12.80930580120204
1 33105U 08032A   11015.54538845 -.00000050  00000+0  46041-4 0  8538
2 33105  66.0443 311.6853 0007628 269.4486  90.5660 12.80930591120294
1 33105U 08032A   11015.85769198 -.00000050  00000+0  46041-4 0  8540
2 33105  66.0443 311.0368 0007638 269.6450  90.3693 12.80930637120333
1 33105U 08032A   11016.56037531 -.00000050  00000+0  46041-4 0  8548
2 33105  66.0446 309.5771 0007624 269.8073  90.2070 12.80930632120427
1 33105U 08032A   11016.87267893 -.00000050  00000+0  46041-4 0  8559
2 33105  66.0446 308.9287 0007625 269.8467  90.1674 12.80930644120466
1 33105U 08032A   11017.80958999 -.00000050  00000+0  46041-4 0  8557
2 33105  66.0448 306.9827 0007635 270.0838  89.9301 12.80930636120580
1 33105U 08032A   11018.51227333 -.00000050  00000+0  46041-4 0  8579
2 33105  66.0448 305.5227 0007605 270.0964  89.9181 12.80930638120674
1 33105U 08032A   11018.98072874 -.00000050  00000+0  46041-4 0  8567
2 33105  66.0449 304.5499 0007607 270.0959  89.9186 12.80930697120738
1 33105U 08032A   11019.76148780 -.00000050  00000+0  46041-4 0  8586
2 33105  66.0450 302.9286 0007614 270.1521  89.8624 12.80930735120830
1 33105U 08032A   11020.15186726 -.00000050  00000+0  46041-4 0  8572
2 33105  66.0454 302.1178 0007625 270.1231  89.8899 12.80930662120884
1 33105U 08032A   11020.77647480 -.00000050  00000+0  46041-4 0  8591
2 33105  66.0454 300.8208 0007620 270.0801  89.9338 12.80930653120968
1 33105U 08032A   11021.40108229 -.00000050  00000+0  46041-4 0  8584
2 33105  66.0452 299.5230 0007584 270.2391  89.7752 12.80930612121043
1 33105U 08032A   11021.79146192 -.00000050  00000+0  46041-4 0  8598
2 33105  66.0453 298.7123 0007605 270.2327  89.7823 12.80930667121093
1 33105U 08032A   11022.49414500 -.00000050  00000+0  46041-4 0  8597
2 33105  66.0451 297.2530 0007579 270.2831  89.7315 12.80930682121180
1 33105U 08032A   11022.80644865 -.00000050  00000+0  46041-4 0  8603
2 33105  66.0450 296.6047 0007579 270.3011  89.7133 12.80930688121225
1 33105U 08032A   11023.74335976 -.00000050  00000+0  46041-4 0  8607
2 33105  66.0449 294.6589 0007555 270.6071  89.4081 12.80930711121344
1 33105U 08032A   11024.83642245 -.00000050  00000+0  46041-4 0  8619
2 33105  66.0444 292.3885 0007531 270.8149  89.2007 12.80930779121480
1 33105U 08032A   11025.69525713 -.00000050  00000+0  46041-4 0  8636
2 33105  66.0441 290.6050 0007492 270.8143  89.2021 12.80930916121593
1 33105U 08032A   11026.24178820 -.00000050  00000+0  46041-4 0  8620
2 33105  66.0438 289.4699 0007465 270.9509  89.0648 12.80930975121667
1 33105U 08032A   11026.78831945 -.00000050  00000+0  46041-4 0  8634
2 33105  66.0435 288.3348 0007470 270.8121  89.2036 12.80930965121738
1 33105U 08032A   11027.56907842 -.00000050  00000+0  46041-4 0  8631
2 33105  66.0434 286.7134 0007463 270.5639  89.4523 12.80930959121832
1 33105U 08032A   11028.89636825 -.00000050  00000+0  46041-4 0  8649
2 33105  66.0432 283.9565 0007430 270.3850  89.6315 12.80931076122006
1 33105U 08032A   11028.89636825 -.00000050  00000+0  46041-4 0  8661
2 33105  66.0432 283.9565 0007430 270.3850  89.6315 12.80931076122006
1 33105U 08032A   11029.67712695 -.00000050  00000+0  46041-4 0  8668
2 33105  66.0431 282.3351 0007428 270.4652  89.5511 12.80931106122101
1 33105U 08032A   11029.98943048 -.00000050  00000+0  46041-4 0  8659
2 33105  66.0431 281.6865 0007406 270.3328  89.6827 12.80931066122148
1 33105U 08032A   11030.77018948 -.00000050  00000+0  46041-4 0  8672
2 33105  66.0431 280.0648 0007408 270.5661  89.4491 12.80931007122245
1 33105U 08032A   11031.16056920 -.00000050  00000+0  46041-4 0  8667
2 33105  66.0430 279.2537 0007392 270.7710  89.2455 12.80931014122291
1 33105U 08032A   11031.78517625 -.00000050  00000+0  46041-4 0  8681
2 33105  66.0430 277.9563 0007384 270.9588  89.0572 12.80931012122376
